{
  "norad_id": 56533,
  "name": "STARLINK-6310",
  "history": [
    {
      "epoch": "2026-03-28T16:46:33.517920Z",
      "apogee_km": 485.95677770971906,
      "perigee_km": 485.1534511846439,
      "latitude_deg": 3.5613332769264895e-05,
      "longitude_deg": 12.930479227479983,
      "height_km": 484.93780887604964,
      "semi_major_axis_km": 6863.692114447181,
      "eccentricity": 5.852e-05,
      "inclination_deg": 43.0015,
      "raan_deg": 90.6858,
      "arg_perigee_deg": 348.1727,
      "mean_anomaly_deg": 11.9111,
      "mean_motion_rev_day": 15.26743469
    }
  ]
}